satname,norad_id,inclination_deg,eccentricity,mean_motion_rev_per_day,perigee_km,apogee_km,l1,l2
STARLINK-1548,46054,53.1588,0.000299,15.31534658,469.18495386042923,473.28087706987753,1 46054U 20055AD  26140.70700798  .00079025  00000+0  25444-2 0  9995,2 46054  53.1588 139.1574 0002990 118.6133 241.5170 15.31534658320101
STARLINK-1554,46055,53.1596,0.0001323,15.31707128,469.8126434956175,471.6248507263026,1 46055U 20055AE  26140.68824865 -.00000095  00000+0  86954-5 0  9993,2 46055  53.1596 139.1882 0001323  99.7388 260.3763 15.31707128320104
STARLINK-1564,46058,53.1593,0.0001259,15.30189811,474.3826512497981,476.1083329613102,1 46058U 20055AH  26140.72515277  .00000864  00000+0  41311-4 0  9995,2 46058  53.1593 139.7691 0001259  77.2644 282.8497 15.30189811320095
STARLINK-1570,46059,53.159,0.0001336,15.31698312,469.83001643161697,471.66003770925,1 46059U 20055AJ  26140.71620079 -.00000149  00000+0  69768-5 0  9996,2 46059  53.1590 138.9411 0001336  87.7643 272.3511 15.31698312320065
STARLINK-1572,46060,53.1591,0.0001258,15.30190667,474.38078102070176,476.10509141265356,1 46060U 20055AK  26140.70615007 -.00000868  00000+0 -17204-4 0  9998,2 46060  53.1591 139.6048 0001258  88.2194 271.8951 15.30190667320063
STARLINK-1573,46061,53.1592,0.0001272,15.31699415,469.870561705151,471.6129164563745,1 46061U 20055AL  26140.70221531 -.00000830  00000+0 -14970-4 0  9990,2 46061  53.1592 138.9720 0001272 112.0946 248.0190 15.31699415320103
STARLINK-1577,46063,53.1602,0.0001382,15.31691641,469.81839483861313,471.7114313273896,1 46063U 20055AN  26140.73018252 -.00000569  00000+0 -65751-5 0  9992,2 46063  53.1602 138.8385 0001382  86.6732 273.4427 15.31691641320102
STARLINK-1583,46064,53.1608,0.0001609,15.30204286,474.09956993684955,476.3049745146518,1 46064U 20055AP  26140.40902157  .00000764  00000+0  37931-4 0  9996,2 46064  53.1608 140.7342 0001609  96.2519 263.8665 15.30204286320040
STARLINK-1536,46070,53.1612,0.0001534,15.31698605,469.69353528224383,471.7947720201837,1 46070U 20055AV  26140.94127007  .00000406  00000+0  24870-4 0  9996,2 46070  53.1612 125.7472 0001534  78.5886 281.5288 15.31698605320306
STARLINK-1542,46073,53.1627,0.0001288,15.31709048,469.8308918581806,471.59515562429624,1 46073U 20055AY  26140.24788328  .00002139  00000+0  80643-4 0  9996,2 46073  53.1627 131.9352 0001288  83.5613 276.5535 15.31709048320146
STARLINK-1549,46074,53.0518,0.0004006,15.27853277,479.482664969466,484.9791917536704,1 46074U 20055AZ  26140.95396308  .00020500  00000+0  75439-3 0  9996,2 46074  53.0518 125.6258 0004006  47.7174 312.4163 15.27853277320286
STARLINK-1551,46075,53.1614,0.0001269,15.30203189,474.3358584873831,476.0752368259782,1 46075U 20055BA  26140.25888394  .00000801  00000+0  39153-4 0  9997,2 46075  53.1614 128.6316 0001269  92.4106 267.7040 15.30203189320194
STARLINK-1552,46076,53.1598,0.000143,15.31698688,469.7645162625777,471.7232962017606,1 46076U 20055BB  26140.91824277 -.00000046  00000+0  10299-4 0  9993,2 46076  53.1598 125.3702 0001430  99.6798 260.4365 15.31698688320288
STARLINK-1559,46077,53.0238,0.000316,15.36386535,454.64536067301924,458.9650441449412,1 46077U 20055BC  26140.59093364  .00034787  00000+0  97224-3 0  9993,2 46077  53.0238  97.3847 0003160  42.8729 317.2518 15.36386535320611
STARLINK-1566,46079,53.1589,0.0001291,15.31703046,469.84672642533496,471.61510412105963,1 46079U 20055BE  26140.66187660 -.00000046  00000+0  10297-4 0  9994,2 46079  53.1589 126.4142 0001291  94.6069 265.5080 15.31703046320265
STARLINK-1568,46080,53.0595,0.0004469,15.52402088,406.6814774195627,412.74845950897725,1 46080U 20055BF  26140.47624387  .00034384  00000+0  55863-3 0  9995,2 46080  53.0595  48.8487 0004469  42.6384 317.4971 15.52402088321324
STARLINK-1578,46082,53.1586,0.000134,15.31702486,469.81483607469545,471.6503331233689,1 46082U 20055BH  26140.66627033 -.00000346  00000+0  63388-6 0  9995,2 46082  53.1586 126.9097 0001340  84.7080 275.4075 15.31702486320258
STARLINK-1579,46083,53.1584,9.17e-05,15.31713122,470.0728410721622,471.3289179392632,1 46083U 20055BJ  26140.65255960 -.00000175  00000+0  61183-5 0  9991,2 46083  53.1584 126.5083 0000917  73.4466 286.6636 15.31713122320256
STARLINK-1622,46128,53.0167,0.0006186,15.78501685,330.5326033567808,338.83770692712187,1 46128U 20057M   26140.70465454  .00100429  00000+0  56340-3 0  9999,2 46128  53.0167 227.2895 0006186   3.5375 356.5688 15.78501685318687
STARLINK-1623,46129,53.043,0.0003238,15.70779775,354.4864717892424,358.8479309900631,1 46129U 20057N   26140.82407092  .00072157  00000+0  56923-3 0  9990,2 46129  53.0430 263.6795 0003238 333.1505  26.9344 15.70779775318198
STARLINK-1624,46130,53.0258,0.0013064,16.08462457,242.40414705121384,259.72492482431244,1 46130U 20057P   26140.71270334  .01018577  60315-3  11589-2 0  9991,2 46130  53.0258 229.4407 0013064 331.9887  28.0441 16.08462457319904
STARLINK-1596,46141,53.0341,0.0004426,15.56230106,395.57984400914575,401.57859320585703,1 46141U 20057AA  26140.80476383  .00051133  00000+0  71791-3 0  9992,2 46141  53.0341 244.3211 0004426 339.8962  20.1873 15.56230106318469
STARLINK-1597,46142,53.0431,0.000158,15.70446452,356.55588067248846,358.68437992566396,1 46142U 20057AB  26140.92489898  .00072048  00000+0  57643-3 0  9999,2 46142  53.0431 302.8906 0001580  45.3854 314.7291 15.70446452317642
STARLINK-1606,46144,53.0374,0.0005865,15.82405227,319.7103755226881,327.57156107950595,1 46144U 20057AD  26141.00002315  .00061895  00000+0  29301-3 0  9994,2 46144  53.0374 257.3729 0005865 307.1202  39.0445 15.82405227  6059
STARLINK-1608,46146,53.1635,0.0001089,15.34155081,462.68624114546765,464.1763347185797,1 46146U 20057AF  26140.81703682  .00028992  00000+0  87262-3 0  9990,2 46146  53.1635 333.5792 0001089 204.5860 155.5091 15.34155081317236
STARLINK-1667,46155,53.0146,0.0007445,15.81985817,319.83506019645483,329.81577123345414,1 46155U 20057AQ  26140.68912214  .00136257  00000+0  64763-3 0  9993,2 46155  53.0146 227.1686 0007445   1.5044 358.5998 15.81985817319922
STARLINK-1545,46156,53.0408,0.000411,15.77167198,335.71070463691103,341.23175660248035,1 46156U 20057AR  26140.75528549  .00107528  00000+0  63985-3 0  9990,2 46156  53.0408 262.3268 0004110 280.0249  80.0306 15.77167198319455
STARLINK-1595,46159,53.0434,0.0001063,15.686682,361.9930810601918,363.42618505437895,1 46159U 20057AU  26140.74322349  .00067461  00000+0  58151-3 0  9992,2 46159  53.0434 306.2832 0001063   6.2156 353.8873 15.68668200318843
